[{"OBJECT_NAME":"STARLINK-6294","OBJECT_ID":"2023-094H","EPOCH":"2026-03-09T22:00:01.999584","MEAN_MOTION":15.1342379,"ECCENTRICITY":0.00018445,"INCLINATION":42.9999,"RA_OF_ASC_NODE":29.0134,"ARG_OF_PERICENTER":282.2673,"MEAN_ANOMALY":130.1632,"EPHEMERIS_TYPE":0,"CLASSIFICATION_TYPE":"U","NORAD_CAT_ID":57225,"ELEMENT_SET_NO":999,"REV_AT_EPOCH":577,"BSTAR":0.0042712641,"MEAN_MOTION_DOT":0.00078295,"MEAN_MOTION_DDOT":0},{"OBJECT_NAME":"CZ-6A DEB","OBJECT_ID":"2022-151AFF","EPOCH":"2026-03-08T15:34:13.969920","MEAN_MOTION":15.07686186,"ECCENTRICITY":0.00385412,"INCLINATION":98.6214,"RA_OF_ASC_NODE":147.2095,"ARG_OF_PERICENTER":177.326,"MEAN_ANOMALY":182.8178,"EPHEMERIS_TYPE":0,"CLASSIFICATION_TYPE":"U","NORAD_CAT_ID":56631,"ELEMENT_SET_NO":999,"REV_AT_EPOCH":15333,"BSTAR":0.0088285077,"MEAN_MOTION_DOT":0.00139408,"MEAN_MOTION_DDOT":0}]
